OBJECT_NAME,OBJECT_ID,EPOCH,MEAN_MOTION,ECCENTRICITY,INCLINATION,RA_OF_ASC_NODE,ARG_OF_PERICENTER,MEAN_ANOMALY,EPHEMERIS_TYPE,CLASSIFICATION_TYPE,NORAD_CAT_ID,ELEMENT_SET_NO,REV_AT_EPOCH,BSTAR,MEAN_MOTION_DOT,MEAN_MOTION_DDOT
SL-14 R/B,1990-018B,2026-06-20T09:17:00.064320,14.82217894,.001758,82.5212,127.1170,112.0162,248.2922,0,U,20511,999,93779,.35499E-4,.308E-5,0
HST,1990-037B,2026-06-20T01:50:53.310624,15.30775367,.00016396,28.4722,60.8244,173.2571,186.8048,0,U,20580,999,78901,.17303938E-3,.5529E-4,0
SL-16 R/B,1990-046B,2026-06-20T04:47:56.767776,14.15027279,.00131045,71.0002,82.6208,157.1855,202.9852,0,U,20625,999,86289,.22302496E-4,-.4E-7,0
COSMOS 2084,1990-055A,2026-06-20T10:44:29.393952,15.06127213,.0005714,62.7899,344.9624,284.4291,75.6175,0,U,20663,999,95179,.11896E-3,.1547E-4,0
SL-6 R/B(2),1990-055D,2026-06-20T10:33:49.493952,15.04011698,.0041187,62.7821,264.3069,5.6187,354.5366,0,U,20666,999,95364,.90726E-4,.1074E-4,0
SL-8 R/B,1990-078B,2026-06-20T09:55:07.658112,14.92453204,.0350147,82.9014,158.7300,27.6142,334.3195,0,U,20775,999,82460,.61081E-3,.21655E-3,0
SL-8 R/B,1991-006B,2026-06-20T08:14:46.301280,13.77506117,.002379,82.9426,93.6858,106.2013,12.7453,0,U,21088,999,77820,.44162E-4,.6E-6,0
OKEAN-3,1991-039A,2026-06-20T11:05:37.330368,15.05338596,.001374,82.5163,237.2059,345.9153,14.1688,0,U,21397,999,88049,.15706E-3,.228E-4,0
COSMOS 2151,1991-042A,2026-06-20T11:03:37.673280,15.00445546,.0013746,82.4961,344.5211,74.2084,286.0655,0,U,21422,999,87860,.77872E-4,.1008E-4,0
SL-14 R/B,1991-042B,2026-06-20T09:27:21.987072,14.81904128,.0015419,82.4929,123.8883,263.2236,96.7224,0,U,21423,999,86828,.32727E-4,.282E-5,0
ERS-1,1991-050A,2026-06-20T00:21:03.277728,14.39518368,.00307366,98.7796,191.7818,258.2342,101.5397,0,U,21574,999,83045,.54570348E-4,.124E-5,0
ARIANE 40 R/B,1991-050F,2026-06-20T09:03:33.422688,14.42958577,.0004341,98.1874,219.6701,114.5448,245.6196,0,U,21610,999,83380,.68296E-4,.187E-5,0
INTERCOSMOS 25,1991-086A,2026-06-20T03:58:32.343168,12.12199832,.14839532,82.6051,248.0074,255.9628,87.2569,0,U,21819,999,50910,.16308629E-3,.818E-5,0
SL-8 R/B,1992-008B,2026-06-20T09:50:30.448896,13.75977754,.0034036,82.9260,191.3913,205.4965,274.9574,0,U,21876,999,72354,.11472E-3,.127E-5,0
SL-8 R/B,1992-020B,2026-06-20T04:48:51.959232,13.75549166,.00295283,82.9305,77.6193,14.3464,139.5768,0,U,21938,999,71522,.59608597E-4,.73E-6,0
USA 81,1992-023A,2026-06-20T10:02:28.070016,14.32398946,.0002754,85.0074,72.1427,82.0332,278.1173,0,U,21949,999,10949,.40565E-4,.13E-5,0
COSMOS 2219,1992-076A,2026-06-20T10:40:08.992128,14.14101263,.0016764,71.0582,163.2619,38.9003,321.3322,0,U,22219,999,73290,.19868E-3,.332E-5,0
SL-16 R/B,1992-076B,2026-06-20T09:52:48.575712,14.16873960,.0014765,71.0008,331.9882,294.4402,91.0889,0,U,22220,999,73638,.14633E-3,.246E-5,0
COSMOS 2221,1992-080A,2026-06-20T00:20:19.529952,14.96539106,.00135193,82.5028,181.0561,202.2400,157.8237,0,U,22236,999,79609,.89563593E-4,.1046E-4,0
SL-16 R/B,1992-093B,2026-06-20T08:26:44.339712,14.15460016,.0003794,71.0197,148.7474,182.3729,177.7377,0,U,22285,999,72768,-.63842E-4,-.172E-5,0
COSMOS 2228,1992-094A,2026-06-20T10:16:59.132352,14.97596173,.0016616,82.5176,138.9381,320.7531,39.2486,0,U,22286,999,79143,.12222E-3,.1457E-4,0
SL-16 R/B,1993-016B,2026-06-19T23:29:39.205536,14.15315458,.00100475,71.0085,0.3430,179.5877,180.5256,0,U,22566,999,71664,.8939248E-4,.127E-5,0
COSMOS 2242,1993-024A,2026-06-20T10:56:58.479360,14.96911702,.0015063,82.5178,168.4151,324.6163,35.4058,0,U,22626,999,79576,.1093E-3,.1283E-4,0
SL-16 R/B,1993-059B,2026-06-20T09:12:32.073984,14.17247821,.0015335,70.9886,154.5628,48.5639,311.6799,0,U,22803,999,69408,-.70101E-4,-.19E-5,0
ARIANE 40 R/B,1993-061H,2026-06-20T10:01:11.199936,14.32909026,.0010251,98.4818,238.2075,346.6122,13.4789,0,U,22830,999,70881,.58943E-4,.118E-5,0
COSMOS 2278,1994-023A,2026-06-20T08:36:32.640768,14.14398795,.0010591,71.0551,320.2888,239.7350,120.2725,0,U,23087,999,65932,.24726E-4,0,0
SL-16 R/B,1994-023B,2026-06-20T10:18:51.104160,14.15026873,.0002542,70.9991,215.1217,184.3948,175.7153,0,U,23088,999,66062,.7807E-4,.104E-5,0
SL-16 R/B,1994-074B,2026-06-20T07:35:49.836192,14.79504472,.0005247,97.6989,197.9072,240.4341,130.3782,0,U,23343,999,70242,.43463E-4,.276E-5,0
SL-16 R/B,1994-077B,2026-06-20T07:12:52.372224,14.15573502,.0003056,70.9814,136.6122,325.7412,34.3513,0,U,23405,999,63075,.15098E-3,.248E-5,0
ARIANE 40+ R/B,1995-021B,2026-06-20T10:47:38.105376,14.39834891,.0006659,98.4410,241.4776,183.5948,187.0806,0,U,23561,999,63403,.71985E-4,.182E-5,0
SL-16 R/B,1995-058B,2026-06-20T10:53:34.399968,14.15510419,.0013967,71.0225,324.4993,316.0138,43.9873,0,U,23705,999,58239,.13689E-3,.22E-5,0
